ION SCV-004             
1 50993U 22002K   26068.68892644  .00006538  00000+0  23198-3 0  9998
2 50993  97.2961 128.2294 0007216   1.6783 358.4480 15.29369331230088
STARLINK-30785          
1 58191U 23167S   26068.55719495  .00000823  00000+0  40356-4 0  9994
2 58191  42.9994 144.2469 0001287 264.4263  95.6441 15.26746987130961
